satname,norad_id,inclination_deg,eccentricity,mean_motion_rev_per_day,perigee_km,apogee_km,l1,l2
STARLINK-1540,46051,53.161,0.0001139,15.30199363,474.43637436982226,475.9975684045039,1 46051U 20055AA  26099.90438800  .00001708  00000+0  69794-4 0  9990,2 46051  53.1610 328.8552 0001139  83.9275 276.1856 15.30199363313861
STARLINK-1541,46052,53.1599,0.0001266,15.37061395,453.9393788988382,455.6694796687334,1 46052U 20055AB  26100.00002315  .00108466  00000+0  29162-2 0  9995,2 46052  53.1599 328.3043 0001266  76.9787 224.2496 15.37061395  5715
STARLINK-1543,46053,53.1613,0.0001639,15.30186503,474.13209831535914,476.37864033402457,1 46053U 20055AC  26099.90019486  .00002238  00000+0  87694-4 0  9995,2 46053  53.1613 328.9381 0001639 100.3962 259.7224 15.30186503313856
STARLINK-1548,46054,53.1619,0.0001301,15.30193293,474.3434716759157,476.12671909513574,1 46054U 20055AD  26099.84225434 -.00000087  00000+0  91816-5 0  9994,2 46054  53.1619 329.2124 0001301  80.8555 279.2593 15.30193293313847
STARLINK-1554,46055,53.1611,0.0001199,15.30228097,474.3094712709353,475.95288498004993,1 46055U 20055AE  26099.90545813  .00009213  00000+0  32253-3 0  9995,2 46055  53.1611 329.0440 0001199  72.9267 287.1865 15.30228097313858
STARLINK-1564,46058,53.162,0.0001208,15.30176559,474.45716752859244,476.11295429850907,1 46058U 20055AH  26099.90343145  .00001888  00000+0  75918-4 0  9998,2 46058  53.1620 329.3871 0001208  80.2977 279.8160 15.30176559313843
STARLINK-1570,46059,53.16,0.0001217,15.30196779,474.3906326443257,476.05874087888424,1 46059U 20055AJ  26099.86753333 -.00000844  00000+0 -16361-4 0  9998,2 46059  53.1600 329.0968 0001217  92.8987 267.2153 15.30196779313801
STARLINK-1572,46060,53.1614,0.0001296,15.30231055,474.2341639438937,476.0105287664692,1 46060U 20055AK  26099.81907969  .00007782  00000+0  27432-3 0  9997,2 46060  53.1614 329.5264 0001296  70.4489 289.6652 15.30231055313807
STARLINK-1573,46061,53.1595,0.0001326,15.30191742,474.33096867577297,476.1484841836218,1 46061U 20055AL  26099.85173055  .00001704  00000+0  69661-4 0  9992,2 46061  53.1595 329.1190 0001326  74.5805 285.5342 15.30191742313844
STARLINK-1577,46063,53.1607,0.0001283,15.30182796,474.3871462824736,476.145729604651,1 46063U 20055AN  26099.87806586  .00001199  00000+0  52639-4 0  9993,2 46063  53.1607 328.9687 0001283  88.8770 271.2377 15.30182796313848
STARLINK-1583,46064,53.16,0.0001395,15.30196221,474.2703086676538,476.1823970430996,1 46064U 20055AP  26099.84856497  .00000854  00000+0  40953-4 0  9990,2 46064  53.1600 329.1391 0001395  95.2609 264.8551 15.30196221313833
STARLINK-1536,46070,53.089,0.0001832,15.17498101,512.1424145576766,514.6674755263402,1 46070U 20055AV  26100.00002315  .00076686  00000+0  37555-2 0  9998,2 46070  53.0890 315.6053 0001832 106.7909 140.3145 15.17498101  5801
STARLINK-1542,46073,53.0552,0.0001485,15.06398447,546.1879026960214,548.2447326313677,1 46073U 20055AY  26099.85943085 -.00000749  00000+0 -31375-4 0  9994,2 46073  53.0552 316.6898 0001485  90.1505 269.9654 15.06398447314007
STARLINK-1549,46074,53.0528,0.0001309,15.25303767,488.974408715083,490.77245384599337,1 46074U 20055AZ  26100.00002315  .00053034  00000+0  20771-2 0  9996,2 46074  53.0528 315.2998 0001309  81.7876  74.7786 15.25303767  5499
STARLINK-1551,46075,53.1327,7.93e-05,15.24368003,492.1389987149969,493.2287109025692,1 46075U 20055BA  26100.00002315  .01502792  00000+0  55293-1 0  9994,2 46075  53.1327 315.4835 0000793 105.4481 197.3959 15.24368003  5792
STARLINK-1552,46076,53.1331,0.0001693,15.24627504,490.74109733902606,493.06729328775964,1 46076U 20055BB  26100.00002315  .01528728  00000+0  55733-1 0  9991,2 46076  53.1331 315.4655 0001693 110.7153  61.7779 15.24627504  5746
STARLINK-1559,46077,53.0247,0.0002569,15.33009,465.0822363942816,468.5991859422793,1 46077U 20055BC  26099.89086717  .00035619  00000+0  11077-2 0  9999,2 46077  53.0247 288.3464 0002569 164.1486 195.9595 15.33009000314365
STARLINK-1566,46079,53.1345,0.0001741,15.24933358,489.7896399154861,492.1814683888415,1 46079U 20055BE  26100.00002315  .01547269  00000+0  55835-1 0  9998,2 46079  53.1345 315.4466 0001741  71.8962  11.8733 15.24933358  5757
STARLINK-1568,46080,53.0602,0.0004379,15.49093117,416.40111572623846,422.3543791420416,1 46080U 20055BF  26099.68222229  .00036849  00000+0  67232-3 0  9991,2 46080  53.0602 244.7936 0004379 237.2762 122.7824 15.49093117314995
STARLINK-1578,46082,53.0931,0.0001315,15.18858342,508.38407085561903,510.19546409546365,1 46082U 20055BH  26100.00002315  .00107083  00000+0  50160-2 0  9994,2 46082  53.0931 315.5720 0001315 131.0847 152.0624 15.18858342  5808
STARLINK-1579,46083,53.129,0.0002292,15.23568071,493.5132650656251,496.66395168450344,1 46083U 20055BJ  26100.00002315  .01508719  00000+0  56830-1 0  9996,2 46083  53.1290 315.5038 0002292  80.7388  50.3960 15.23568071  5711
STARLINK-1593,46119,53.0418,0.0005972,15.89053582,300.9439754072455,308.9262367307347,1 46119U 20057C   26100.00002315  .00370731  00000+0  12167-2 0  9994,2 46119  53.0418 113.0361 0005972  44.8898 152.8671 15.89053582  5947
STARLINK-1621,46127,53.038,0.0005837,15.94521798,285.7551926439319,293.53916389364167,1 46127U 20057L   26100.00002315  .00421511  81577-4  10929-2 0  9993,2 46127  53.0380  85.4735 0005837  52.3521 164.1815 15.94521798  6018
STARLINK-1622,46128,53.0208,0.0002037,15.70265464,356.7655144995615,359.5098728097564,1 46128U 20057M   26099.62827630  .00092708  00000+0  74407-3 0  9995,2 46128  53.0208  71.7874 0002037  11.5240 348.5822 15.70265464312211
STARLINK-1623,46129,53.0461,0.0003301,15.59782316,386.0529614422412,390.52015427514016,1 46129U 20057N   26100.00002315  .00123793  00000+0  14992-2 0  9997,2 46129  53.0461 104.3757 0003301 354.2061 107.1521 15.59782316  5940
STARLINK-1624,46130,53.0408,0.0008355,15.78797837,328.23780346910826,339.4535265022987,1 46130U 20057P   26100.00002315  .00181604  00000+0  99199-3 0  9997,2 46130  53.0408  76.8396 0008355  78.6561  24.5677 15.78797837  5984
STARLINK-1596,46141,53.0397,0.0002052,15.50056268,415.1673575788627,417.9559018965065,1 46141U 20057AA  26098.97841396  .00080143  00000+0  13969-2 0  9997,2 46141  53.0397  86.0327 0002052  54.4414 305.6785 15.50056268311964
STARLINK-1597,46142,53.0451,0.0004976,15.63906145,373.0254530592629,379.74755485039987,1 46142U 20057AB  26100.00002315  .00170983  00000+0  17525-2 0  9990,2 46142  53.0451 144.4166 0004976 326.8570 122.1121 15.63906145  5869
